ARCSTONE                
1 64540U 25135N   26068.88991918  .00026427  00000+0  94900-3 0  9995
2 64540  97.4495 185.9194 0004120 166.7863 193.3485 15.28638458 39847
STARLINK-35732          
1 67037U 25294H   26068.41005823  .00033889  00000+0  12357-2 0  9990
2 67037  43.0011  39.8888 0001258 340.4225  19.6578 15.27571643 14758
